#cP2022  3  9  0  0  0.00000000     576 d+D   IGb14 EXT AIUB
## 2200 259200.00000000   300.00000000 59647 0.0000000000000
+   76   G01G02G03G04G05G06G07G08G09G10G11G12G13G14G15G16G17
+        G18G19G20G21G22G23G24G25G26G27G28G29G30G31G32R01R02
+        R03R04R05R07R08R09R11R12R13R14R15R17R18R19R20R21R22
+        R24E01E02E03E04E05E07E08E09E10E11E12E13E14E15E19E21
+        E25E26E27E30E31E33E34E36  0  0  0  0  0  0  0  0  0
++         6  7  6  8  8  6  7  6  6  5  8  7  7  7  7  7  8
++         8  7  7  7  7  7  6  6  7  5  7  8  6  7  6  9  7
++         8  8  7  8  7  7  7  6  7  6  6  8  7  7  9  8  7
++         8  6  5  6  6  6  7  6  6  6  6  7  7  7  6  7  6
++         6  6  6  6  5  7  6  6  0  0  0  0  0  0  0  0  0
%c M  cc GPS ccc cccc cccc cccc cccc ccccc ccccc ccccc ccccc
%c cc cc ccc ccc cccc cccc cccc cccc ccccc ccccc ccccc ccccc
%f  1.2500000  1.025000000  0.00000000000  0.000000000000000
%f  0.0000000  0.000000000  0.00000000000  0.000000000000000
%i    0    0    0    0      0      0      0      0         0
%i    0    0    0    0      0      0      0      0         0
/* Center for Orbit Determination in Europe (CODE)          
/* Ultra-rapid GRE orbits starting year-day 22068 00 hour   
/* Observed/predicted: 24/24 hours (data used up to 068X)   
/* PCV:IGS14      OL/AL:FES2014b NONE     YN ORB:CoN CLK:BRD
*  2022  3  9  0 15  0.00000000
PG01  21880.362596  13403.290840   7250.321248    413.548295
PG02 -11627.721142 -20244.779794  13193.935193   -652.002580
PG03  13689.635172   6720.094336  21653.479854   -154.768564
PG04  23166.333824   2483.985732  12834.427838   -184.938389
PG05  -6794.979863 -21266.098436 -14433.364009    -73.998066
PG06   3666.542191 -15572.366220  21254.678804    225.029136
PG07  18961.877385   -635.722281 -18397.883296    314.962098
PG08  15691.739075   8868.879485 -19653.305423    -59.089557
PG09  25490.322084  -6975.649427   2749.008701   -350.753435
PG10 -11535.380934  21293.671083 -10416.149802   -341.261621
PG11  -9624.562929 -21528.606787  12232.190071    -67.991457
PG12 -11796.707101 -10959.808622  20879.104124   -181.998222
PG13  -6930.882348 -13874.850856 -21730.780359    273.692564
PG14  13042.868702 -20315.343442 -10995.468526    -91.922689
PG15 -17256.992140  -7610.340426 -19224.166469    -78.257307
PG16   1415.893263  23605.849458 -11874.535917   -478.412392
PG17  19236.940269 -13810.145000  12511.691115    584.732121
PG18 -18470.016934    752.071825 -19112.921477    224.190439
PG19  12966.214960 -14851.019514  17446.018977    128.508857
PG20  -2476.791335 -26089.952615  -5065.233796    516.385669
PG21  20511.835351  17215.621837  -2001.586718    159.131772
PG22  -9186.007272  16126.654145  19334.705278    224.597382
PG23 -15013.493909  11629.418033 -18539.555828     -5.171807
PG24 -22285.358923 -14607.003606   2426.846960    269.672297
PG25 -15663.756356   3703.196735  20792.799234    295.689846
PG26  -4508.266997  25986.655561    836.098695    189.253564
PG27   3764.230375  14574.426075 -22070.723097    147.375608
PG28   9182.791038 -24899.738116  -2249.819486    384.658091
PG29 -25962.544123   3378.313083   4607.174599   -489.078364
PG30  13052.466195  -9179.433004 -21178.993182   -517.638482
PG31  -2056.692480  17241.712836  19838.311940   -168.064747
PG32 -15391.071870  16045.647687  14519.629492    -81.131730
PR01   2067.644558 -15842.452807 -19875.305784      7.191673
PR02 -13524.578549  -1015.490052 -21543.484756    511.900195
PR03 -19690.940808  12974.317021  -9608.384615     52.779913
PR04 -14826.055936  19360.879254   7499.196050    131.052123
PR05  -1805.194647  15096.362716  20488.929472     89.027727
PR07  19778.907067 -13396.953048   9051.517047     32.444389
PR08  14754.708781 -19423.333216  -7447.979068    -63.919837
PR09  12758.793212  13624.515550 -17409.268609     43.340736
PR11   2214.149230 -19933.159742 -15749.616426     44.015332
PR12  -7336.595959 -24383.496576   1728.671783     17.380463
PR13 -12399.883944 -14720.908508  16720.439966    -19.210995
PR14 -10201.228991   4770.805095  22892.927847     75.178028
PR15  -2134.877192  20421.839933  15146.221589     97.680837
PR17 -22058.770301   -166.782865 -12825.340428    507.948380
PR18  -8625.174956   8045.687611 -22591.966343    109.688497
PR19   7820.970948  12239.555870 -20967.747042   -180.862616
PR20  23049.264883   9736.923132  -5081.057185    -66.357338
PR21  21256.440791   -485.133750  14080.428533   -283.784878
PR22   7901.283739  -8258.304429  22805.147142   -169.383837
PR24 -23448.074384  -9050.002789   4391.248843     83.504308
PE01  16435.793452  -8207.464558 -23216.676487   -593.110727
PE02 -16409.601239   8355.183940  23162.681086    285.005747
PE03 -27488.961638  10226.081303  -4035.089100   -535.379981
PE04  17626.477852 -19385.693185 -13766.437208   -980.414037
PE05 -21375.721364  -5134.326450 -19816.397097   -202.179452
PE07   2914.858446  17294.256078  23853.204097   -646.416294
PE08 -17257.628768  19460.060172  14141.641975   -491.908907
PE09  -3181.453827 -17047.597870 -23981.638361   5335.122767
PE10  -2902.565082 -19204.281805  22332.917212   -499.409793
PE11 -13120.295566 -21202.231690  15931.754979   4278.217901
PE12   7448.378924 -14394.790341  24770.472234   4723.089372
PE13  12613.862985  21118.707569 -16465.830835    427.132283
PE14  13045.606890  15921.413007 -22654.747193  -1771.445308
PE15  -7484.030775  14272.356957 -24819.336054    758.940719
PE19  27640.844757  -8478.802236   6366.969529   -996.363666
PE21  14319.702920  13037.981847 -22389.591035   -721.418618
PE25 -14221.818406 -13332.247182  22277.509334   -566.128542
PE26  25397.923653  15004.626603   2488.433246   -890.162462
PE27   3865.480166  28036.321554  -8648.019024   -248.817576
PE30  -9491.006171  25786.562478  10966.603062   -333.092261
PE31   8774.959179 -26422.205569 -10065.343678   -493.247606
PE33  23094.536105    965.923695  18506.749438   -458.748428
PE34 -22983.884049   -745.591619 -18639.307499   -505.730330
PE36 -25152.547657 -15519.077671  -1486.169777   -342.596040
EOF
